QIANFAN-65              
1 62795U 25016L   25337.76877063  .00000139  00000+0  19610-3 0  9999
2 62795  88.9758 103.9855 0013886  16.0949 344.0641 13.50981147 46036
QIANFAN-66              
1 62796U 25016M   25337.87158565  .00000176  00000+0  25380-3 0  9993
2 62796  88.9777 103.9433 0014850  10.8186 349.3282 13.50985406 46094
QIANFAN-67              
1 62797U 25016N   25337.87584997  .00000165  00000+0  23733-3 0  9994
2 62797  88.9767 103.9693 0015022  17.7227 342.4445 13.50978223 46067
QIANFAN-68              
1 62798U 25016P   25337.86756029  .00000179  00000+0  25840-3 0  9997
2 62798  88.9771 104.0150 0015022  15.9615 344.2007 13.50980590 46046
QIANFAN-69              
1 62799U 25016Q   25337.81000945  .00000147  00000+0  20908-3 0  9997
2 62799  88.9750 103.8922 0015821  16.9157 343.2518 13.50983438 46070
QIANFAN-70              
1 62800U 25016R   25337.90043671  .00000156  00000+0  22231-3 0  9994
2 62800  88.9771 104.0195 0015142   7.1202 353.0161 13.50974153 46044
QIANFAN-71              
1 62801U 25016S   25337.89632337  .00000147  00000+0  20825-3 0  9993
2 62801  88.9765 104.0000 0015837  20.1986 339.9788 13.50981349 46041
QIANFAN-72              
1 62802U 25016T   25337.76467051  .00000146  00000+0  20755-3 0  9990
2 62802  88.9755 104.0279 0019294  26.6880 333.5260 13.50981274 46013
